{
  "type": "FeatureCollection",
  "features": [
    {
      "type": "Feature",
      "properties": {
        "name": "Sardhana"
      },
      "geometry": {
        "type": "Polygon",
        "coordinates": [
          [
            [
              77.42270254722347,
              29.092002529180167
            ],
            [
              77.4606227554396,
              29.076993975679777
            ],
            [
              77.44694661477149,
              29.068685669277777
            ],
            [
              77.454717149242,
              29.05340910589345
            ],
            [
              77.44352757960446,
              29.03384438436616
            ],
            [
              77.46093357681842,
              29.024732048312348
            ],
            [
              77.45160893545379,
              29.01937185063364
            ],
            [
              77.47523136024417,
              28.96603788373047
            ],
            [
              77.462499496144,
              28.951718466580992
            ],
            [
              77.65835329341317,
              29.06188622754491
            ],
            [
              77.67492574106488,
              29.244183151713816
            ],
            [
              77.667940615113,
              29.254148508961162
            ],
            [
              77.66545404408244,
              29.254684528729033
            ],
            [
              77.65768350961191,
              29.252272439773613
            ],
            [
              77.64431819032262,
              29.22600747114793
            ],
            [
              77.6290879427604,
              29.2265434909158
            ],
            [
              77.62007412277461,
              29.249860350818196
            ],
            [
              77.58650541386197,
              29.265940943854325
            ],
            [
              77.56474791734453,
              29.23458378743387
            ],
            [
              77.51221910432383,
              29.20510270020096
            ],
            [
              77.50444856985331,
              29.191434196120248
            ],
            [
              77.4739880747289,
              29.18768205774515
            ],
            [
              77.46839328991011,
              29.18821807751302
            ],
            [
              77.46839328991011,
              29.186878028093346
            ],
            [
              77.46808246853129,
              29.185805988557604
            ],
            [
              77.46652836163719,
              29.178301711807407
            ],
            [
              77.47989368092648,
              29.170797435057214
            ],
            [
              77.46808246853129,
              29.16248912865521
            ],
            [
              77.47087986094068,
              29.143728436779725
            ],
            [
              77.45782536303021,
              29.141852367592175
            ],
            [
              77.45720372027257,
              29.1284518733954
            ],
            [
              77.44041936581625,
              29.130059932699012
            ],
            [
              77.442595115468,
              29.117463468154043
            ],
            [
              77.42954061755754,
              29.106475062912686
            ],
            [
              77.43451375961865,
              29.094146608251652
            ],
            [
              77.42270254722347,
              29.092002529180167
            ]
          ]
        ]
      }
    },
    {
      "type": "Feature",
      "properties": {
        "name": "Daurala"
      },
      "geometry": {
        "type": "Polygon",
        "coordinates": [
          [
            [
              77.65835329341317,
              29.06188622754491
            ],
            [
              77.81443925233644,
              29.041074766355145
            ],
            [
              77.83753463485584,
              29.202742443990957
            ],
            [
              77.80594530730939,
              29.202958621129476
            ],
            [
              77.7956882018083,
              29.185001958905794
            ],
            [
              77.77703891907906,
              29.185269968789733
            ],
            [
              77.77579563356377,
              29.201082551941926
            ],
            [
              77.7416052818935,
              29.221183293237093
            ],
            [
              77.68503579094813,
              29.22975960952303
            ],
            [
              77.67492574106488,
              29.244183151713816
            ],
            [
              77.65835329341317,
              29.06188622754491
            ]
          ]
        ]
      }
    },
    {
      "type": "Feature",
      "properties": {
        "name": "Mawana"
      },
      "geometry": {
        "type": "Polygon",
        "coordinates": [
          [
            [
              77.81443925233644,
              29.041074766355145
            ],
            [
              77.84572088724585,
              28.981118299445466
            ],
            [
              78.06781690140845,
              28.990774647887324
            ],
            [
              77.91880141764132,
              29.214297873538012
            ],
            [
              77.90261075612263,
              29.21903921416561
            ],
            [
              77.89390775751565,
              29.2099268781118
            ],
            [
              77.85940658446654,
              29.22841956010335
            ],
            [
              77.8451088010408,
              29.20269061124554
            ],
            [
              77.83753463485584,
              29.202742443990957
            ],
            [
              77.81443925233644,
              29.041074766355145
            ]
          ]
        ]
      }
    },
    {
      "type": "Feature",
      "properties": {
        "name": "Hastinapur"
      },
      "geometry": {
        "type": "Polygon",
        "coordinates": [
          [
            [
              77.91880141764132,
              29.214297873538012
            ],
            [
              78.06781690140845,
              28.990774647887324
            ],
            [
              78.07599277421095,
              28.98851923470043
            ],
            [
              78.06890019379169,
              29.048316918098678
            ],
            [
              78.04962926830481,
              29.069221689045648
            ],
            [
              78.07294087171636,
              29.08235417335849
            ],
            [
              78.07480579998929,
              29.084498252429974
            ],
            [
              78.08817111927857,
              29.10138287511791
            ],
            [
              78.09034686893033,
              29.145604505967274
            ],
            [
              78.12391557784295,
              29.171333454825085
            ],
            [
              78.10775286614428,
              29.20510270020096
            ],
            [
              78.11365847234187,
              29.256292588032647
            ],
            [
              78.08723865514212,
              29.24664423221097
            ],
            [
              77.99057320632888,
              29.25602457814871
            ],
            [
              77.98311349323718,
              29.237799906041094
            ],
            [
              77.93835521468701,
              29.237531896157158
            ],
            [
              77.91908428920011,
              29.214215036254767
            ],
            [
              77.91880141764132,
              29.214297873538012
            ]
          ]
        ]
      }
    },
    {
      "type": "Feature",
      "properties": {
        "name": "Meerut City"
      },
      "geometry": {
        "type": "Polygon",
        "coordinates": [
          [
            [
              77.44725743615031,
              28.927176450559816
            ],
            [
              77.45875782716668,
              28.925300381372267
            ],
            [
              77.45658207751492,
              28.906807699380717
            ],
            [
              77.50351610571686,
              28.895015264487554
            ],
            [
              77.53149002981071,
              28.88804700750523
            ],
            [
              77.5448553491,
              28.893943224951812
            ],
            [
              77.55728820425283,
              28.893675215067876
            ],
            [
              77.57127516629977,
              28.887242977853422
            ],
            [
              77.58246473593731,
              28.89287118541607
            ],
            [
              77.59272184143839,
              28.874914523192388
            ],
            [
              77.6424532620497,
              28.881882780174713
            ],
            [
              77.65519693858135,
              28.868214276094
            ],
            [
              77.68317086267521,
              28.873306463888774
            ],
            [
              77.69995521713153,
              28.85320572259361
            ],
            [
              77.69187386128219,
              28.823724635360705
            ],
            [
              77.70959067987498,
              28.81300424000328
            ],
            [
              77.70803657298087,
              28.78968738010089
            ],
            [
              77.6844141481905,
              28.767442559734242
            ],
            [
              77.67944100612937,
              28.762886391707337
            ],
            [
              77.68969811163045,
              28.74412569983185
            ],
            [
              77.69000893300927,
              28.743321670180045
            ],
            [
              77.7204694281337,
              28.736621423081658
            ],
            [
              77.73763706917248,
              28.745299060012663
            ],
            [
              77.84572088724585,
              28.981118299445466
            ],
            [
              77.81443925233644,
              29.041074766355145
            ],
            [
              77.65835329341317,
              29.06188622754491
            ],
            [
              77.462499496144,
              28.951718466580992
            ],
            [
              77.46093357681842,
              28.949957290694336
            ],
            [
              77.47025821818303,
              28.94674117208711
            ],
            [
              77.46466343336427,
              28.93066057905098
            ],
            [
              77.44725743615031,
              28.927176450559816
            ]
          ]
        ]
      }
    },
    {
      "type": "Feature",
      "properties": {
        "name": "Kithor"
      },
      "geometry": {
        "type": "Polygon",
        "coordinates": [
          [
            [
              77.73763706917248,
              28.745299060012663
            ],
            [
              77.7475108880911,
              28.750289927162367
            ],
            [
              77.77051167012382,
              28.76154634228766
            ],
            [
              77.77548481218496,
              28.76395843124308
            ],
            [
              77.77641727632142,
              28.7663705201985
            ],
            [
              77.7792146687308,
              28.772534747529015
            ],
            [
              77.78729602458014,
              28.79022339986876
            ],
            [
              77.79786395146004,
              28.785667231841856
            ],
            [
              77.83640580243382,
              28.80469593360128
            ],
            [
              77.86282561963357,
              28.79585160743141
            ],
            [
              77.86251479825475,
              28.827744783619735
            ],
            [
              77.85381179964777,
              28.83230095164664
            ],
            [
              77.8677987616947,
              28.864462137718903
            ],
            [
              77.91380032576016,
              28.860709999343804
            ],
            [
              77.93307125124706,
              28.83390901095025
            ],
            [
              77.94799067743044,
              28.84677348537916
            ],
            [
              77.96197763947737,
              28.840877267932576
            ],
            [
              77.9744104946302,
              28.856421841200838
            ],
            [
              78.00238441872406,
              28.85132965340606
            ],
            [
              78.02414191524151,
              28.876522582496
            ],
            [
              78.03470984212142,
              28.880006710987164
            ],
            [
              78.06485951586703,
              28.879202681335357
            ],
            [
              78.09283343996088,
              28.87223442435303
            ],
            [
              78.12080736405476,
              28.87839865168355
            ],
            [
              78.08786029789975,
              28.89099511622852
            ],
            [
              78.10837450890192,
              28.917796104622074
            ],
            [
              78.09998233167376,
              28.932268638354593
            ],
            [
              78.08195469170217,
              28.926104411024074
            ],
            [
              78.07418415723164,
              28.93548475696182
            ],
            [
              78.09656329650673,
              28.951297340114014
            ],
            [
              78.07729237101985,
              28.977562308739696
            ],
            [
              78.07599277421095,
              28.98851923470043
            ],
            [
              78.06781690140845,
              28.990774647887324
            ],
            [
              77.84572088724585,
              28.981118299445466
            ],
            [
              77.73763706917248,
              28.745299060012663
            ]
          ]
        ]
      }
    }
  ]
}